[{"OBJECT_NAME":"DTUSAT-2","OBJECT_ID":"2014-033W","EPOCH":"2026-03-09T22:10:18.114528","MEAN_MOTION":15.13540485,"ECCENTRICITY":0.00071331,"INCLINATION":98.0849,"RA_OF_ASC_NODE":60.4732,"ARG_OF_PERICENTER":201.7269,"MEAN_ANOMALY":158.3659,"EPHEMERIS_TYPE":0,"CLASSIFICATION_TYPE":"U","NORAD_CAT_ID":40030,"ELEMENT_SET_NO":999,"REV_AT_EPOCH":63766,"BSTAR":0.00060729373,"MEAN_MOTION_DOT":0.00010825,"MEAN_MOTION_DDOT":0},{"OBJECT_NAME":"RE","OBJECT_ID":"2012-048H","EPOCH":"2026-03-09T14:34:58.971936","MEAN_MOTION":15.18958187,"ECCENTRICITY":0.0110372,"INCLINATION":64.6561,"RA_OF_ASC_NODE":148.4253,"ARG_OF_PERICENTER":206.6471,"MEAN_ANOMALY":152.8958,"EPHEMERIS_TYPE":0,"CLASSIFICATION_TYPE":"U","NORAD_CAT_ID":38765,"ELEMENT_SET_NO":999,"REV_AT_EPOCH":10026,"BSTAR":0.00059519,"MEAN_MOTION_DOT":0.00014497,"MEAN_MOTION_DDOT":0}]
